#cV2022  2 20  0  0  0.00000000    1913   SLR   ECF FIT NSGF
## 2198      0.00000000   180.00000000 59630 0.0000000000000
+    1   L56  0  0  0  0  0  0  0  0  0  0  0  0  0  0  0  0
+          0  0  0  0  0  0  0  0  0  0  0  0  0  0  0  0  0
+          0  0  0  0  0  0  0  0  0  0  0  0  0  0  0  0  0
+          0  0  0  0  0  0  0  0  0  0  0  0  0  0  0  0  0
+          0  0  0  0  0  0  0  0  0  0  0  0  0  0  0  0  0
++         0  0  0  0  0  0  0  0  0  0  0  0  0  0  0  0  0
++         0  0  0  0  0  0  0  0  0  0  0  0  0  0  0  0  0
++         0  0  0  0  0  0  0  0  0  0  0  0  0  0  0  0  0
++         0  0  0  0  0  0  0  0  0  0  0  0  0  0  0  0  0
++         0  0  0  0  0  0  0  0  0  0  0  0  0  0  0  0  0
%c L  cc UTC ccc cccc cccc cccc cccc ccccc ccccc ccccc ccccc
%c cc cc ccc ccc cccc cccc cccc cccc ccccc ccccc ccccc ccccc
%f  0.0000000  0.000000000  0.00000000000  0.000000000000000
%f  0.0000000  0.000000000  0.00000000000  0.000000000000000
%i    0    0    0    0      0      0      0      0         0
%i    0    0    0    0      0      0      0      0         0
/*                                                          
/* Earth-centered-fixed orbital predictions from SGF ILRS AC
/* The underlying ECF frame is that of IERS/ITRF            
/* Note: Solution based on 4-day long arc                   
/*                                                          
*  2022  2 22  3  0  0.00000000
PL56   2837.615226   2242.386817  -6212.139018
VL56 -31988.151000 -58034.158000 -35627.305000
*  2022  2 22  3  3  0.00000000
PL56   2202.474584   1173.295275  -6742.185631
VL56 -38389.587000 -60383.824000 -23098.892000
*  2022  2 22  3  6  0.00000000
PL56   1463.341288     81.948759  -7038.979681
VL56 -43500.697000 -60506.355000  -9784.667600
*  2022  2 22  3  9  0.00000000
PL56    645.579578   -991.774898  -7092.449464
VL56 -47091.939000 -58438.432000   3859.996700
*  2022  2 22  3 12  0.00000000
PL56   -221.774197  -2009.361778  -6900.826522
VL56 -48986.173000 -54294.138000  17370.329000
*  2022  2 22  3 15  0.00000000
PL56  -1107.022874  -2935.008736  -6470.689961
VL56 -49066.019000 -48259.564000  30285.882000
*  2022  2 22  3 18  0.00000000
PL56  -1976.939534  -3736.859024  -5816.761497
VL56 -47279.670000 -40585.716000  42164.706000
*  2022  2 22  3 21  0.00000000
PL56  -2797.986838  -4388.091869  -4961.447903
VL56 -43645.001000 -31579.571000  52597.128000
*  2022  2 22  3 24  0.00000000
PL56  -3537.592835  -4867.836432  -3934.136445
VL56 -38251.550000 -21593.294000  61219.551000
*  2022  2 22  3 27  0.00000000
PL56  -4165.439486  -5161.874155  -2770.243681
VL56 -31259.817000 -11011.572000  67727.719000
*  2022  2 22  3 30  0.00000000
PL56  -4654.711198  -5263.097182  -1510.038446
VL56 -22897.593000   -237.300740  71888.584000
*  2022  2 22  3 33  0.00000000
PL56  -4983.248747  -5171.697897   -197.267724
VL56 -13453.039000  10323.926000  73550.177000
*  2022  2 22  3 36  0.00000000
PL56  -5134.549696  -4895.073650   1122.370436
VL56  -3264.599900  20279.830000  72648.578000
*  2022  2 22  3 39  0.00000000
PL56  -5098.561592  -4447.443275   2402.849910
VL56   7291.873900  29267.334000  69211.492000
*  2022  2 22  3 42  0.00000000
PL56  -4872.222047  -3849.186919   3599.464898
VL56  17818.166000  36967.180000  63357.452000
*  2022  2 22  3 45  0.00000000
PL56  -4459.718214  -3125.943345   4670.429273
VL56  27909.716000  43116.164000  55291.263000
*  2022  2 22  3 48  0.00000000
PL56  -3872.452409  -2307.509818   5578.361333
VL56  37172.101000  47516.742000  45295.822000
*  2022  2 22  3 51  0.00000000
PL56  -3128.718935  -1426.601779   6291.592125
VL56  45236.442000  50042.948000  33721.039000
*  2022  2 22  3 54  0.00000000
PL56  -2253.112334   -517.532252   6785.261097
VL56  51773.919000  50643.532000  20971.210000
*  2022  2 22  3 57  0.00000000
PL56  -1275.686045    385.138900   7042.164250
VL56  56508.790000  49342.022000   7490.197100
*  2022  2 22  4  0  0.00000000
PL56   -230.899971   1247.924390   7053.328876
VL56  59228.746000  46233.375000  -6253.775500
*  2022  2 22  4  3  0.00000000
PL56    843.602704   2039.654669   6818.316306
VL56  59793.668000  41479.099000 -19783.338000
*  2022  2 22  4  6  0.00000000
PL56   1908.356937   2732.612091   6345.243331
VL56  58142.138000  35299.829000 -32627.867000
*  2022  2 22  4  9  0.00000000
PL56   2923.531317   3303.513554   5650.520625
VL56  54295.345000  27966.028000 -44339.016000
*  2022  2 22  4 12  0.00000000
PL56   3850.432718   3734.313720   4758.313802
VL56  48358.525000  19787.235000 -54506.066000
*  2022  2 22  4 15  0.00000000
PL56   4653.006280   4012.798848   3699.728506
VL56  40518.991000  11099.702000 -62770.912000
*  2022  2 22  4 18  0.00000000
PL56   5299.273384   4132.948591   2511.743135
VL56  31041.189000   2252.986700 -68841.452000
*  2022  2 22  4 21  0.00000000
PL56   5762.645239   4095.045422   1235.907164
VL56  20257.800000  -6404.546300 -72503.402000
*  2022  2 22  4 24  0.00000000
PL56   6023.042172   3905.521766    -83.143116
VL56   8557.050100 -14540.325000 -73629.254000
*  2022  2 22  4 27  0.00000000
PL56   6067.763025   3576.551514  -1399.295639
VL56  -3632.280200 -21851.216000 -72183.133000
*  2022  2 22  4 30  0.00000000
PL56   5892.057715   3125.405238  -2666.626720
VL56 -15858.478000 -28075.915000 -68221.679000
*  2022  2 22  4 33  0.00000000
PL56   5499.377943   2573.606088  -3841.043932
VL56 -27665.002000 -33004.640000 -61890.884000
*  2022  2 22  4 36  0.00000000
PL56   4901.301196   1945.932314  -4881.840205
VL56 -38608.520000 -36486.451000 -53419.489000
*  2022  2 22  4 39  0.00000000
PL56   4117.134662   1269.315563  -5753.097376
VL56 -48276.197000 -38433.438000 -43108.862000
*  2022  2 22  4 42  0.00000000
PL56   3173.228816    571.693899  -6424.884770
VL56 -56300.593000 -38821.598000 -31320.785000
*  2022  2 22  4 45  0.00000000
PL56   2102.041157   -119.126701  -6874.227240
VL56 -62372.501000 -37689.119000 -18464.036000
*  2022  2 22  4 48  0.00000000
PL56    940.992959   -776.558397  -7085.823550
VL56 -66251.115000 -35132.350000  -4980.161000
*  2022  2 22  4 51  0.00000000
PL56   -268.837884  -1376.229264  -7052.512217
VL56 -67772.140000 -31300.026000   8670.410600
*  2022  2 22  4 54  0.00000000
PL56  -1484.149400  -1896.861142  -6775.480034
VL56 -66853.496000 -26385.866000  22022.766000
*  2022  2 22  4 57  0.00000000
PL56  -2660.931494  -2321.006123  -6264.218707
VL56 -63499.017000 -20620.247000  34621.486000
*  2022  2 22  5  0  0.00000000
PL56  -3756.026028  -2635.622999  -5536.228539
VL56 -57799.513000 -14260.776000  46034.408000
*  2022  2 22  5  3  0.00000000
PL56  -4728.690947  -2832.479586  -4616.475436
VL56 -49932.280000  -7582.461500  55866.490000
*  2022  2 22  5  6  0.00000000
PL56  -5542.123540  -2908.367776  -3536.597547
VL56 -40156.827000   -866.691720  63773.625000
*  2022  2 22  5  9  0.00000000
PL56  -6164.882752  -2865.118685  -2333.872182
VL56 -28807.881000   5609.920500  69475.403000
*  2022  2 22  5 12  0.00000000
PL56  -6572.150998  -2709.413481  -1049.964253
VL56 -16284.588000  11586.955000  72766.433000
*  2022  2 22  5 15  0.00000000
PL56  -6746.772805  -2452.393424    270.508164
VL56  -3036.548100  16831.024000  73525.225000
*  2022  2 22  5 18  0.00000000
PL56  -6680.014758  -2109.082434   1581.541590
VL56  10453.047000  21145.626000  71720.025000
*  2022  2 22  5 21  0.00000000
PL56  -6372.000890  -1697.646806   2837.387448
VL56  23686.556000  24379.287000  67410.883000
*  2022  2 22  5 24  0.00000000
PL56  -5831.793961  -1238.527845   3994.191386
VL56  36171.718000  26431.485000  60747.559000
*  2022  2 22  5 27  0.00000000
PL56  -5077.120029   -753.490227   5011.561563
VL56  47441.482000  27256.047000  51963.693000
*  2022  2 22  5 30  0.00000000
PL56  -4133.748251   -264.634409   5853.996111
VL56  57071.985000  26861.699000  41367.210000
*  2022  2 22  5 33  0.00000000
PL56  -3034.568145    206.577910   6492.119927
VL56  64698.414000  25310.169000  29328.786000
*  2022  2 22  5 36  0.00000000
PL56  -1818.399782    640.242950   6903.695159
VL56  70028.594000  22711.922000  16268.444000
*  2022  2 22  5 39  0.00000000
PL56   -528.588634   1018.837775   7074.373976
VL56  72853.420000  19219.914000   2640.305200
*  2022  2 22  5 42  0.00000000
PL56    788.558333   1327.919252   6998.178816
VL56  73053.919000  15021.994000 -11082.360000
*  2022  2 22  5 45  0.00000000
PL56   2085.442720   1556.674900   6677.704906
VL56  70606.043000  10332.167000 -24422.856000
*  2022  2 22  5 48  0.00000000
PL56   3314.901645   1698.307199   6124.042181
VL56  65582.303000   5380.865900 -36916.623000
*  2022  2 22  5 51  0.00000000
PL56   4431.939340   1750.238061   5356.416322
VL56  58150.487000    404.746150 -48126.880000
*  2022  2 22  5 54  0.00000000
PL56   5395.404149   1714.127103   4401.550352
VL56  48568.892000  -4363.703700 -57659.770000
*  2022  2 22  5 57  0.00000000
PL56   6169.553162   1595.704336   3292.761223
VL56  37178.582000  -8706.408500 -65178.930000
*  2022  2 22  6  0  0.00000000
PL56   6725.437543   1404.420402   2068.801036
VL56  24391.019000 -12429.609000 -70418.764000
*  2022  2 22  6  3  0.00000000
PL56   7042.039466   1152.927943    772.486885
VL56  10673.101000 -15372.620000 -73194.771000
*  2022  2 22  6  6  0.00000000
PL56   7107.106836    856.419237   -550.834860
VL56  -3471.248200 -17414.982000 -73411.299000
*  2022  2 22  6  9  0.00000000
PL56   6917.639540    531.851654  -1854.926461
VL56 -17521.479000 -18481.745000 -71065.285000
*  2022  2 22  6 12  0.00000000
PL56   6479.999725    197.099227  -3094.325204
VL56 -30961.402000 -18546.295000 -66245.509000
*  2022  2 22  6 15  0.00000000
PL56   5809.648525   -129.924587  -4225.963461
VL56 -43299.498000 -17630.677000 -59128.213000
*  2022  2 22  6 18  0.00000000
PL56   4930.527413   -432.127005  -5210.676357
VL56 -54087.964000 -15803.463000 -49969.144000
*  2022  2 22  6 21  0.00000000
PL56   3874.123589   -694.036515  -6014.534986
VL56 -62938.564000 -13175.359000 -39092.385000
EOF
